{
    "links": {
        "self": "http://www.neowsapp.com/rest/v1/neo/3410341?api_key=iIulBulltgU6a56xZRHN4H3l9WmuAYTsLGpBGhQ2"
    },
    "id": "3410341",
    "neo_reference_id": "3410341",
    "name": "(2008 JO14)",
    "designation": "2008 JO14",
    "nasa_jpl_url": "http://ssd.jpl.nasa.gov/sbdb.cgi?sstr=3410341",
    "absolute_magnitude_h": 21.1,
    "estimated_diameter": {
        "kilometers": {
            "estimated_diameter_min": 0.160160338,
            "estimated_diameter_max": 0.358129403
        },
        "meters": {
            "estimated_diameter_min": 160.1603379786,
            "estimated_diameter_max": 358.1294030194
        },
        "miles": {
            "estimated_diameter_min": 0.0995189894,
            "estimated_diameter_max": 0.2225312253
        },
        "feet": {
            "estimated_diameter_min": 525.4604432536,
            "estimated_diameter_max": 1174.9652706022
        }
    },
    "is_potentially_hazardous_asteroid": false,
    "close_approach_data": [
        {
            "close_approach_date": "2008-04-25",
            "close_approach_date_full": "2008-Apr-25 07:51",
            "epoch_date_close_approach": 1209109860000,
            "relative_velocity": {
                "kilometers_per_second": "25.1995525756",
                "kilometers_per_hour": "90718.3892722424",
                "miles_per_hour": "56368.8791564109"
            },
            "miss_distance": {
                "astronomical": "0.0899529975",
                "lunar": "34.9917160275",
                "kilometers": "13456776.826115325",
                "miles": "8361653.384728485"
            },
            "orbiting_body": "Earth"
        },
        {
            "close_approach_date": "2011-02-05",
            "close_approach_date_full": "2011-Feb-05 00:35",
            "epoch_date_close_approach": 1296866100000,
            "relative_velocity": {
                "kilometers_per_second": "27.7554110812",
                "kilometers_per_hour": "99919.4798921886",
                "miles_per_hour": "62086.0790474546"
            },
            "miss_distance": {
                "astronomical": "0.0243471713",
                "lunar": "9.4710496357",
                "kilometers": "3642284.967005131",
                "miles": "2263210.9320115678"
            },
            "orbiting_body": "Venus"
        },
        {
            "close_approach_date": "2099-02-01",
            "close_approach_date_full": "2099-Feb-01 02:16",
            "epoch_date_close_approach": 4073595360000,
            "relative_velocity": {
                "kilometers_per_second": "33.8847239536",
                "kilometers_per_hour": "121985.0062328423",
                "miles_per_hour": "75796.7390117347"
            },
            "miss_distance": {
                "astronomical": "0.1413163109",
                "lunar": "54.9720449401",
                "kilometers": "21140619.106897783",
                "miles": "13136171.5806560854"
            },
            "orbiting_body": "Venus"
        },
        {
            "close_approach_date": "2101-09-25",
            "close_approach_date_full": "2101-Sep-25 03:07",
            "epoch_date_close_approach": 4157060820000,
            "relative_velocity": {
                "kilometers_per_second": "24.286253766",
                "kilometers_per_hour": "87430.5135575406",
                "miles_per_hour": "54325.9210491285"
            },
            "miss_distance": {
                "astronomical": "0.0916164454",
                "lunar": "35.6387972606",
                "kilometers": "13705625.088811298",
                "miles": "8516280.5250119924"
            },
            "orbiting_body": "Earth"
        }
    ],
    "orbital_data": {
        "orbit_id": "17",
        "orbit_determination_date": "2017-04-06 09:03:28",
        "first_observation_date": "2008-05-07",
        "last_observation_date": "2008-05-29",
        "data_arc_in_days": 22,
        "observations_used": 73,
        "orbit_uncertainty": "7",
        "minimum_orbit_intersection": ".0754448",
        "jupiter_tisserand_invariant": "3.345",
        "epoch_osculation": "2459000.5",
        "eccentricity": ".7954656947873301",
        "semi_major_axis": "2.00452744393947",
        "inclination": "4.969350933767169",
        "ascending_node_longitude": "116.9587029094735",
        "orbital_period": "1036.612488557259",
        "perihelion_distance": ".4099946280258885",
        "perihelion_argument": "349.7126549793846",
        "aphelion_distance": "3.59906025985305",
        "perihelion_time": "2458676.694179195048",
        "mean_anomaly": "112.4529144463839",
        "mean_motion": ".3472850307843023",
        "equinox": "J2000",
        "orbit_class": {
            "orbit_class_type": "APO",
            "orbit_class_description": "Near-Earth asteroid orbits which cross the Earth’s orbit similar to that of 1862 Apollo",
            "orbit_class_range": "a (semi-major axis) > 1.0 AU; q (perihelion) < 1.017 AU"
        }
    },
    "is_sentry_object": false
}